{"type":"FeatureCollection","source":"https://incois.gov.in/geoserver/PFZ_EEZ/ows?service=WFS&version=1.0.0&request=GetFeature&typeName=PFZ_EEZ%3Aindiaeez&outputFormat=application%2Fjson&srsName=EPSG%3A4326","generatedAt":"2026-09-01T00:30:40.312Z","features":[{"type":"Feature","geometry":{"type":"MultiLineString","coordinates":[[[93.82706,6.74583],[93.92969,6.94916],[93.91277,7.02861],[93.86804,7.1823],[93.85526,7.20945],[93.80914,7.23639],[93.67249,7.18403],[93.64472,7.09111],[93.64777,7.0325],[93.67847,7.02334],[93.76469,6.92055],[93.78497,6.83334],[93.82706,6.74583]]]},"properties":{}},{"type":"Feature","geometry":{"type":"MultiLineString","coordinates":[[[93.63666,7.24653],[93.73484,7.36298],[93.69693,7.42277],[93.67913,7.38965],[93.61762,7.36708],[93.59637,7.30653],[93.6204,7.24972],[93.63666,7.24653]]]},"properties":{}},{"type":"Feature","geometry":{"type":"MultiLineString","coordinates":[[[93.4536,7.86895],[93.45833,7.90277],[93.44386,7.94361],[93.38541,8.01681],[93.35664,8.01389],[93.30663,7.95277],[93.30901,7.92542],[93.35679,7.87681],[93.4536,7.86895]]]},"properties":{}},{"type":"Feature","geometry":{"type":"MultiLineString","coordinates":[[[93.48325,7.99069],[93.53665,8.05695],[93.52443,8.1],[93.52222,8.17722],[93.52874,8.22069],[93.49582,8.22277],[93.47748,8.20777],[93.44664,8.13611],[93.48325,7.99069]]]},"properties":{}},{"type":"Feature","geometry":{"type":"MultiLineString","coordinates":[[[73.03103,8.2475],[73.06581,8.26305],[73.08194,8.30305],[73.02041,8.26243],[73.03103,8.2475]]]},"properties":{}},{"type":"Feature","geometry":{"type":"MultiLineString","coordinates":[[[92.77082,9.12472],[92.79707,9.13333],[92.81219,9.16333],[92.80568,9.21006],[92.78665,9.23861],[92.75916,9.26264],[92.70889,9.19695],[92.70889,9.16361],[92.715,9.14222],[92.73137,9.12735],[92.77082,9.12472]]]},"properties":{}},{"type":"Feature","geometry":{"type":"MultiLineString","coordinates":[[[73.63604,10.05312],[73.64665,10.08472],[73.63026,10.06889],[73.63604,10.05312]]]},"properties":{}},{"type":"Feature","geometry":{"type":"MultiLineString","coordinates":[[[72.63332,10.55068],[72.64999,10.56695],[72.62629,10.55111],[72.63332,10.55068]]]},"properties":{}},{"type":"Feature","geometry":{"type":"MultiLineString","coordinates":[[[72.17081,10.81243],[72.19553,10.84805],[72.19602,10.87062],[72.17581,10.83889],[72.17081,10.81243]]]},"properties":{}},{"type":"Feature","geometry":{"type":"MultiLineString","coordinates":[[[92.46111,10.515],[92.50749,10.53139],[92.53609,10.57583],[92.57693,10.70083],[92.56047,10.77697],[92.52541,10.87597],[92.46693,10.88805],[92.35693,10.78986],[92.34694,10.71472],[92.35929,10.54264],[92.46111,10.515]]]},"properties":{}},{"type":"Feature","geometry":{"type":"MultiLineString","coordinates":[[[72.77692,11.18555],[72.78844,11.25125],[72.77117,11.19243],[72.77692,11.18555]]]},"properties":{}},{"type":"Feature","geometry":{"type":"MultiLineString","coordinates":[[[92.62665,11.35361],[92.67623,11.36208],[92.69386,11.45472],[92.68137,11.48222],[92.6402,11.51222],[92.62581,11.49],[92.61554,11.35639],[92.62665,11.35361]]]},"properties":{}},{"type":"Feature","geometry":{"type":"MultiLineString","coordinates":[[[92.71652,11.4918],[92.76054,11.61555],[92.79582,11.90195],[92.76111,12.05639],[92.74992,12.07458],[92.75777,12.1275],[92.76749,12.15945],[92.74825,12.18047],[92.71706,12.1828],[92.72218,12.21818],[92.67408,12.21285],[92.64027,12.14166],[92.64693,12.11722],[92.62469,11.94333],[92.56845,11.92986],[92.52533,11.85542],[92.66331,11.53055],[92.71652,11.4918]]]},"properties":{}},{"type":"Feature","geometry":{"type":"MultiLineString","coordinates":[[[92.75427,12.07134],[92.8611,12.16222],[92.89936,12.28819],[92.85291,12.30298],[92.81119,12.31197],[92.78441,12.31224],[92.78899,12.2753],[92.75527,12.2798],[92.76482,12.25325],[92.78548,12.18688],[92.77013,12.16057],[92.75174,12.09494],[92.75427,12.07134]]]},"properties":{}},{"type":"Feature","geometry":{"type":"MultiLineString","coordinates":[[[92.75888,12.305],[92.79124,12.31921],[92.82951,12.31865],[92.87442,12.30666],[92.88694,12.36472],[92.86554,12.38166],[92.84872,12.42805],[92.91721,12.43583],[92.98637,12.50611],[92.99249,12.70875],[92.92859,12.90916],[92.90237,12.89907],[92.87581,12.88455],[92.84654,12.8909],[92.81331,12.89507],[92.73637,12.80972],[92.74638,12.685],[92.71388,12.3575],[92.73582,12.31375],[92.75888,12.305]]]},"properties":{}},{"type":"Feature","geometry":{"type":"MultiLineString","coordinates":[[[92.87548,12.88761],[92.87679,12.90743],[92.96053,13.07972],[92.95999,13.0375],[93.02443,13.03583],[93.04526,13.06555],[93.06441,13.2375],[93.05888,13.54611],[93.00638,13.57139],[92.89249,13.465],[92.88506,13.37912],[92.84068,13.3275],[92.81192,13.06555],[92.80637,13.03445],[92.81342,12.89792],[92.84596,12.89403],[92.87548,12.88761]]]},"properties":{}},{"type":"Feature","geometry":{"type":"MultiLineString","coordinates":[[[90.259,15.68322],[92.83334,14],[93.13333,13.81667],[93.83334,13.8],[95.68333,12.9],[95.43333,11.71667],[95.25,10.46667],[95.46667,9.88333],[95.59028,9.63333],[95.62778,8.80111],[95.65305,8.22972],[95.69666,7.95833],[95.53,7.78333],[95.42917,7.66833],[94.63333,6.64167],[94.40334,6.27],[93.68667,5.42222],[92.72528,4.30861],[92.14542,3.8781],[91.67416,4.20665],[91.26153,4.61606],[90.87386,5.20023],[90.77257,5.34401],[90.52338,5.86912],[90.41712,6.24826],[90.41631,6.24992],[90.20423,6.56582],[90.20332,6.56742],[90.19918,6.57577],[90.19827,6.57738],[90.19653,6.58101],[90.19424,6.5847],[90.19405,6.58503],[90.19167,6.5889],[90.19071,6.59067],[89.93937,7.11663],[89.91128,7.21585],[89.66769,7.76157],[89.565,7.97569],[89.40499,8.54036],[89.40417,8.5437],[89.40333,8.54785],[89.40239,8.55198],[89.21382,9.3684],[89.21289,9.3716],[89.04929,9.81072],[88.82997,10.94664],[88.8299,10.95244],[88.80803,11.54776],[88.99648,12.6891],[88.9989,12.69662],[89.27442,13.27107],[89.29658,13.45738],[89.30274,13.5179],[89.31663,13.57219],[89.3224,13.64625],[89.32325,13.6535],[89.47011,14.22123],[89.58746,14.52156],[89.59151,14.5341],[89.59883,14.55008],[89.65709,14.69901],[89.65786,14.70151],[89.90578,15.23287],[89.91247,15.24248],[90.259,15.68322]]]},"properties":{}},{"type":"Feature","geometry":{"type":"MultiLineString","coordinates":[[[88.13235,21.62055],[88.16666,21.76972],[88.1647,21.81166],[88.14972,21.85861],[88.14166,21.87111],[88.11998,21.86666],[88.09248,21.81944],[88.04554,21.67138],[88.04623,21.64583],[88.06498,21.62972],[88.13235,21.62055]]]},"properties":{}},{"type":"Feature","geometry":{"type":"MultiLineString","coordinates":[[[89.13342,21.71178],[89.15863,21.59198],[89.17157,21.53894],[89.19446,21.44769],[89.2345,21.27979],[89.24219,21.2464],[89.31659,20.89832],[89.45514,20.4986],[89.90332,19.20343],[89.61047,18.35797],[89.42633,18.12964],[89.0708,17.8111],[89.06598,17.80646],[89.05389,17.79498],[89.02637,17.76068],[88.07574,17.04108],[88.06256,17.03534],[88.06012,17.03424],[87.50311,16.80042],[87.36914,16.75177],[87.3515,16.74426],[87.33746,16.73944],[87.33502,16.73859],[87.33258,16.73792],[87.32996,16.737],[87.32117,16.73438],[87.31525,16.73285],[87.30975,16.73132],[87.30377,16.72955],[87.30139,16.7287],[87.29895,16.72803],[87.29651,16.72711],[87.28992,16.72559],[87.20544,16.61536],[87.20081,16.61096],[87.09302,16.48492],[87.01031,16.3855],[86.7782,16.14349],[86.77533,16.14063],[86.33911,15.73535],[85.83881,15.4082],[85.83661,15.4071],[85.52948,15.11847],[85.43268,15.02808],[85.42914,15.02545],[85.31873,14.91718],[85.31256,14.90643],[85.30664,14.89478],[84.95526,14.41956],[84.52698,14.0108],[84.521,14.00531],[84.02887,13.67395],[84.0271,13.6731],[83.75146,13.54901],[83.76837,13.35254],[83.76996,13.33429],[83.76996,13.32678],[83.76971,13.32086],[83.76971,13.31342],[83.76862,13.29999],[83.71472,12.71985],[83.71362,12.71326],[83.71271,12.70862],[83.67181,12.53546],[83.6709,12.52972],[83.61835,12.22021],[83.61749,12.21692],[83.46259,11.6546],[83.46191,11.65308],[83.46082,11.64972],[83.45886,11.6427],[83.45447,11.62708],[83.4527,11.62268],[83.44916,11.61542],[83.44586,11.60706],[83.44409,11.60199],[83.44189,11.59674],[83.44104,11.59412],[83.4386,11.58905],[83.43555,11.57715],[83.43225,11.56836],[83.43134,11.56573],[82.4068,11.26672],[81.04169,10.69519],[80.15839,10.14014],[80.04993,10.08337],[79.37677,9.66931],[79.53339,9.2168],[79.52173,9.00006],[79.30347,8.66675],[79.07843,8.52002],[78.89514,8.20343],[78.64679,7.3501],[77.84509,5.89832],[77.02344,4.784],[76.72089,5.09308],[75.69287,6.4707],[75.4295,6.85175],[75.20178,7.40002],[74.93585,7.85846],[73.64288,7.6972],[73.0564,7.68115],[72.70721,7.71503],[70.25226,8.09387],[69.36652,8.34955],[69.11218,8.87469],[69.10956,8.88129],[68.89288,10.01776],[68.89594,10.05981],[68.84314,10.24463],[68.84229,10.2486],[68.84137,10.25427],[68.7547,10.57507],[68.69531,11.1532],[68.7417,11.74432],[68.82556,12.15753],[69.21539,13.24939],[69.55267,13.73004],[70.3761,14.42615],[70.05731,15.31097],[70.04742,15.40759],[69.90112,15.93115],[69.89648,15.95667],[69.85516,16.31042],[69.83203,16.44159],[69.76141,16.7146],[69.73962,16.81934],[69.73041,16.86267],[69.71832,16.89563],[69.68396,17.005],[69.65057,17.07166],[69.46423,17.62341],[68.88385,17.86761],[68.85767,17.87885],[68.85614,17.8797],[68.81256,17.89844],[68.81079,17.89929],[68.79364,17.90833],[68.78949,17.91071],[68.76813,17.92236],[68.76569,17.92346],[68.76263,17.92523],[68.73291,17.93976],[68.7204,17.94507],[68.71289,17.94922],[68.63391,17.99762],[68.62225,18.00531],[68.5943,18.02295],[68.08636,18.34766],[68.07446,18.35669],[68.07092,18.35931],[68.0459,18.37537],[68.02698,18.38855],[67.99371,18.41388],[67.99042,18.41626],[67.98383,18.42224],[67.96643,18.43695],[67.96204,18.44049],[67.95721,18.44403],[67.95239,18.448],[67.94818,18.45081],[67.94489,18.45325],[67.92969,18.4671],[67.86566,18.52319],[67.85779,18.52826],[67.40173,18.9408],[67.37463,18.96759],[67.36719,18.97577],[67.35883,18.98474],[67.35333,18.99005],[67.35132,18.99225],[67.34473,18.99951],[67.34076,19.00323],[67.32843,19.01471],[67.32538,19.01758],[67.31549,19.02924],[67.30536,19.03979],[67.30115,19.0448],[67.27344,19.07428],[67.26685,19.08179],[67.25763,19.09259],[67.24878,19.10114],[67.24597,19.104],[67.23431,19.11719],[67.22925,19.12292],[67.22504,19.12775],[67.21075,19.14337],[67.20087,19.15594],[67.19647,19.16077],[67.18652,19.1709],[67.17181,19.18848],[67.16937,19.19135],[67.16083,19.20038],[67.14606,19.21796],[67.12805,19.2373],[67.12256,19.24396],[67.1181,19.24677],[67.10406,19.2558],[67.09503,19.26373],[67.08337,19.27386],[67.06775,19.28662],[67.05035,19.30182],[66.59583,19.7066],[66.58331,19.71826],[66.58112,19.72021],[66.57648,19.72552],[66.57361,19.72839],[66.56067,19.74286],[66.55688,19.7464],[66.53558,19.76666],[66.53357,19.76862],[66.52216,19.78247],[66.51752,19.78754],[66.50342,19.80231],[66.49243,19.81482],[66.48737,19.82056],[66.47791,19.8291],[66.47241,19.83441],[66.46625,19.84058],[66.46405,19.84253],[66.45459,19.85376],[66.4458,19.86237],[66.43835,19.87073],[66.43414,19.87555],[66.42908,19.88129],[66.42493,19.88635],[66.42072,19.89117],[66.40179,19.90833],[66.3963,19.91473],[66.38971,19.92108],[66.37891,19.93121],[66.36572,19.9455],[66.3587,19.95343],[66.35272,19.95917],[66.34613,19.96594],[66.34064,19.97083],[66.336,19.97565],[66.32831,19.98376],[66.32019,19.99103],[66.31335,19.99872],[66.30389,20.00934],[66.29706,20.01703],[66.27771,20.04077],[65.62347,21.02264],[65.62079,21.02942],[65.67188,21.10822],[66.16907,21.47827],[66.61432,21.81372],[67.15814,22.21967],[67.36365,22.52106],[67.54736,22.88647],[67.64655,23.09503],[67.72223,23.24438],[67.90967,23.43958],[68.00189,23.53412],[68.05139,23.58807],[68.08173,23.62085],[68.09229,23.63202],[68.11432,23.64197],[68.13147,23.64923],[68.1499,23.6582],[68.15875,23.66217],[68.17548,23.6723],[68.18268,23.67694],[68.18384,23.68134],[68.1825,23.69214],[68.1814,23.69983],[68.18115,23.70135],[68.18115,23.7049],[68.18073,23.70728],[68.18048,23.71057],[68.17896,23.71936],[68.17743,23.72711],[68.1792,23.73279],[68.1803,23.73523],[68.1825,23.73828],[68.18445,23.74207],[68.18622,23.74469],[68.18823,23.74841],[68.19043,23.75171],[68.19104,23.7533],[68.19458,23.75769]]]},"properties":{}}]}