{"type":"FeatureCollection","source":"https://incois.gov.in/geoserver/PFZ_Sectors/ows?service=WFS&version=1.0.0&request=GetFeature&typeName=PFZ_Sectors%3Asector_new&outputFormat=application%2Fjson&srsName=EPSG%3A4326","generatedAt":"2026-08-23T03:30:37.349Z","features":[{"type":"Feature","geometry":{"type":"MultiPolygon","coordinates":[[[[72.97929,20.04316],[70.50719,20.04316],[67.88011,20.04316],[67.88011,23.75767],[72.97929,23.75767],[72.97929,20.04316]]]]},"properties":{"SECTORNAME":"GUJARAT","SEC_ID":"SEC001"}},{"type":"Feature","geometry":{"type":"MultiPolygon","coordinates":[[[[72.97929,20.04316],[73.71036,20.04316],[73.71036,15.70784],[71.58412,15.70784],[70.50719,15.70784],[70.50719,20.04316],[72.97929,20.04316]]]]},"properties":{"SECTORNAME":"MAHARASHTRA","SEC_ID":"SEC002"}},{"type":"Feature","geometry":{"type":"MultiPolygon","coordinates":[[[[71.58412,14.85813],[75.03581,14.85813],[75.03581,12.80842],[74.23502,12.80842],[71.58412,12.80842],[71.58412,14.85813]]]]},"properties":{"SECTORNAME":"KARNATAKA","SEC_ID":"SEC004"}},{"type":"Feature","geometry":{"type":"MultiPolygon","coordinates":[[[[74.23502,12.80842],[75.03581,12.80842],[77.18966,12.79461],[77.18966,10.06778],[77.18966,7.38236],[74.23502,7.38236],[74.23502,12.80842]]]]},"properties":{"SECTORNAME":"KERALA","SEC_ID":"SEC005"}},{"type":"Feature","geometry":{"type":"MultiPolygon","coordinates":[[[[74.05456,8.06547],[71.29455,8.06547],[71.29455,12.32048],[74.05456,12.32048],[74.05456,8.06547]]]]},"properties":{"SECTORNAME":"LAKSHADWEEP","SEC_ID":"SEC014"}},{"type":"Feature","geometry":{"type":"MultiPolygon","coordinates":[[[[79.02596,10.06778],[81.33169,10.06778],[81.33169,7.01649],[77.18966,7.01649],[77.18966,7.38236],[77.18966,10.06778],[79.02596,10.06778]]]]},"properties":{"SECTORNAME":"SOUTH TAMILNADU","SEC_ID":"SEC006"}},{"type":"Feature","geometry":{"type":"MultiPolygon","coordinates":[[[[79.87513,13.51027],[82.38101,13.51027],[82.38101,10.08158],[82.38105,10.06541],[81.33169,10.06778],[79.02596,10.06778],[79.02596,10.08158],[79.02596,13.51188],[79.87513,13.51027]]]]},"properties":{"SECTORNAME":"NORTH TAMILNADU","SEC_ID":"SEC007"}},{"type":"Feature","geometry":{"type":"MultiPolygon","coordinates":[[[[82.18675,16.53047],[83.54585,16.53047],[83.54585,13.51027],[82.38101,13.51027],[79.87513,13.51027],[79.87513,16.53047],[82.18675,16.53047]]]]},"properties":{"SECTORNAME":"SOUTH ANDHRAPRADESH","SEC_ID":"SEC008"}},{"type":"Feature","geometry":{"type":"MultiPolygon","coordinates":[[[[85.8807,19.11697],[85.8807,16.53047],[83.54585,16.53047],[82.18675,16.53047],[82.18675,19.12088],[84.77573,19.11697],[85.8807,19.11697]]]]},"properties":{"SECTORNAME":"NORTH ANDHRAPRADESH","SEC_ID":"SEC009"}},{"type":"Feature","geometry":{"type":"MultiPolygon","coordinates":[[[[91.52107,15.2384],[94.50334,15.2384],[94.50334,10.07468],[92.12857,10.07468],[91.52107,10.07468],[91.52107,15.2384]]]]},"properties":{"SECTORNAME":"ANDAMAN","SEC_ID":"SEC012"}},{"type":"Feature","geometry":{"type":"MultiPolygon","coordinates":[[[[92.12857,10.07468],[94.50334,10.07468],[94.77947,10.07468],[94.77947,6.34685],[92.12857,6.34685],[92.12857,10.07468]]]]},"properties":{"SECTORNAME":"NICOBAR","SEC_ID":"SEC013"}},{"type":"Feature","geometry":{"type":"MultiPolygon","coordinates":[[[[75.03581,14.85813],[71.58412,14.85813],[71.58412,15.70784],[73.71036,15.70784],[75.03581,15.70784],[75.03581,14.85813]]]]},"properties":{"SECTORNAME":"GOA","SEC_ID":"SEC003"}},{"type":"Feature","geometry":{"type":"MultiPolygon","coordinates":[[[[89.00102,20.7218],[87.48025,20.7218],[87.48025,22.21803],[87.48322,22.21803],[89.00102,22.21803],[89.00102,20.7218]]]]},"properties":{"SECTORNAME":"WEST BENGAL","SEC_ID":"SEC010"}},{"type":"Feature","geometry":{"type":"MultiPolygon","coordinates":[[[[89.00102,20.7218],[89.00102,19.11697],[85.8807,19.11697],[84.77573,19.11697],[84.77573,22.21803],[87.48025,22.21803],[87.48025,20.7218],[89.00102,20.7218]]]]},"properties":{"SECTORNAME":"ODISHA","SEC_ID":"SEC011"}}]}